{"fetched_at":"2026-07-15T17:47:22.722Z","source":"https://celestrak.org/NORAD/elements/gp.php?NAME=NUSAT&FORMAT=JSON","constellation":"satellogic","records":[{"OBJECT_NAME":"NUSAT-26 (M SOMERVILLE)","OBJECT_ID":"2022-033AD","EPOCH":"2026-07-15T04:44:27.921696","CLASSIFICATION_TYPE":"U","MEAN_MOTION":15.43244519,"ECCENTRICITY":0.0007022,"INCLINATION":97.2345,"RA_OF_ASC_NODE":275.078,"ARG_OF_PERICENTER":137.8543,"MEAN_ANOMALY":222.3246,"EPHEMERIS_TYPE":0,"NORAD_CAT_ID":52184,"ELEMENT_SET_NO":999,"REV_AT_EPOCH":10902,"BSTAR":0.00020146,"MEAN_MOTION_DOT":0.00008873,"MEAN_MOTION_DDOT":0},{"OBJECT_NAME":"NUSAT-33 (ALBANIA-2)","OBJECT_ID":"2023-001AQ","EPOCH":"2026-07-15T04:08:08.650176","CLASSIFICATION_TYPE":"U","MEAN_MOTION":15.28265357,"ECCENTRICITY":0.0004826,"INCLINATION":97.3056,"RA_OF_ASC_NODE":256.5429,"ARG_OF_PERICENTER":315.0176,"MEAN_ANOMALY":45.0673,"EPHEMERIS_TYPE":0,"NORAD_CAT_ID":55047,"ELEMENT_SET_NO":999,"REV_AT_EPOCH":19658,"BSTAR":0.00019591,"MEAN_MOTION_DOT":0.00005322,"MEAN_MOTION_DDOT":0},{"OBJECT_NAME":"NUSAT-35 (WILLIAMINA)","OBJECT_ID":"2023-001AR","EPOCH":"2026-07-15T04:28:55.894656","CLASSIFICATION_TYPE":"U","MEAN_MOTION":15.35825123,"ECCENTRICITY":0.0010468,"INCLINATION":97.1836,"RA_OF_ASC_NODE":248.2367,"ARG_OF_PERICENTER":10.1848,"MEAN_ANOMALY":349.9607,"EPHEMERIS_TYPE":0,"NORAD_CAT_ID":55048,"ELEMENT_SET_NO":999,"REV_AT_EPOCH":19670,"BSTAR":0.00023062,"MEAN_MOTION_DOT":0.00007974,"MEAN_MOTION_DDOT":0},{"OBJECT_NAME":"NUSAT-39 (TIKVAH ALPER)","OBJECT_ID":"2023-054Z","EPOCH":"2026-07-15T04:13:34.481856","CLASSIFICATION_TYPE":"U","MEAN_MOTION":15.4801573,"ECCENTRICITY":0.0001853,"INCLINATION":97.3097,"RA_OF_ASC_NODE":106.2111,"ARG_OF_PERICENTER":323.316,"MEAN_ANOMALY":36.7963,"EPHEMERIS_TYPE":0,"NORAD_CAT_ID":56201,"ELEMENT_SET_NO":999,"REV_AT_EPOCH":18278,"BSTAR":0.00031951,"MEAN_MOTION_DOT":0.00016627,"MEAN_MOTION_DDOT":0},{"OBJECT_NAME":"NUSAT-38 (MARIA AGNESI)","OBJECT_ID":"2023-054AA","EPOCH":"2026-07-15T04:06:10.214784","CLASSIFICATION_TYPE":"U","MEAN_MOTION":15.511975,"ECCENTRICITY":0.0008793,"INCLINATION":97.3037,"RA_OF_ASC_NODE":106.9413,"ARG_OF_PERICENTER":327.7392,"MEAN_ANOMALY":32.3322,"EPHEMERIS_TYPE":0,"NORAD_CAT_ID":56202,"ELEMENT_SET_NO":999,"REV_AT_EPOCH":18284,"BSTAR":0.00036208,"MEAN_MOTION_DOT":0.0002113,"MEAN_MOTION_DDOT":0},{"OBJECT_NAME":"NUSAT-37 (JOAN CLARKE)","OBJECT_ID":"2023-054AB","EPOCH":"2026-07-15T03:57:39.608928","CLASSIFICATION_TYPE":"U","MEAN_MOTION":15.59609368,"ECCENTRICITY":0.000785,"INCLINATION":97.2607,"RA_OF_ASC_NODE":103.8147,"ARG_OF_PERICENTER":143.939,"MEAN_ANOMALY":216.2398,"EPHEMERIS_TYPE":0,"NORAD_CAT_ID":56203,"ELEMENT_SET_NO":999,"REV_AT_EPOCH":18300,"BSTAR":0.00041617,"MEAN_MOTION_DOT":0.00033138,"MEAN_MOTION_DDOT":0},{"OBJECT_NAME":"NUSAT-40 (C SHOEMAKER)","OBJECT_ID":"2023-084M","EPOCH":"2026-07-15T05:22:08.029056","CLASSIFICATION_TYPE":"U","MEAN_MOTION":15.82434264,"ECCENTRICITY":0.0004109,"INCLINATION":97.4871,"RA_OF_ASC_NODE":345.0906,"ARG_OF_PERICENTER":188.4276,"MEAN_ANOMALY":171.6925,"EPHEMERIS_TYPE":0,"NORAD_CAT_ID":56943,"ELEMENT_SET_NO":999,"REV_AT_EPOCH":17323,"BSTAR":0.00049027,"MEAN_MOTION_DOT":0.00102266,"MEAN_MOTION_DDOT":0},{"OBJECT_NAME":"NUSAT-41 (C PAYNE-G)","OBJECT_ID":"2023-084N","EPOCH":"2026-07-15T04:22:41.670336","CLASSIFICATION_TYPE":"U","MEAN_MOTION":15.30152862,"ECCENTRICITY":0.0006472,"INCLINATION":97.5551,"RA_OF_ASC_NODE":333.3501,"ARG_OF_PERICENTER":211.0252,"MEAN_ANOMALY":149.0607,"EPHEMERIS_TYPE":0,"NORAD_CAT_ID":56944,"ELEMENT_SET_NO":999,"REV_AT_EPOCH":17206,"BSTAR":0.00021608,"MEAN_MOTION_DOT":0.00006228,"MEAN_MOTION_DDOT":0},{"OBJECT_NAME":"NUSAT-42 (M WONENBURGER)","OBJECT_ID":"2023-084AL","EPOCH":"2026-07-15T04:36:52.549632","CLASSIFICATION_TYPE":"U","MEAN_MOTION":15.46508063,"ECCENTRICITY":0.0006771,"INCLINATION":97.5748,"RA_OF_ASC_NODE":341.5089,"ARG_OF_PERICENTER":146.09,"MEAN_ANOMALY":214.0783,"EPHEMERIS_TYPE":0,"NORAD_CAT_ID":56966,"ELEMENT_SET_NO":999,"REV_AT_EPOCH":17240,"BSTAR":0.00027114,"MEAN_MOTION_DOT":0.0001338,"MEAN_MOTION_DDOT":0},{"OBJECT_NAME":"NUSAT-44 (MARIA MITCHELL)","OBJECT_ID":"2024-043AA","EPOCH":"2026-07-15T04:53:14.287776","CLASSIFICATION_TYPE":"U","MEAN_MOTION":15.29849573,"ECCENTRICITY":0.0006477,"INCLINATION":97.5484,"RA_OF_ASC_NODE":336.8951,"ARG_OF_PERICENTER":131.4095,"MEAN_ANOMALY":228.7703,"EPHEMERIS_TYPE":0,"NORAD_CAT_ID":59122,"ELEMENT_SET_NO":999,"REV_AT_EPOCH":13155,"BSTAR":0.00021235,"MEAN_MOTION_DOT":0.00006062,"MEAN_MOTION_DDOT":0},{"OBJECT_NAME":"NUSAT-50 (NANCY ROMAN)","OBJECT_ID":"2024-149AB","EPOCH":"2026-07-15T03:48:21.097728","CLASSIFICATION_TYPE":"U","MEAN_MOTION":15.30318696,"ECCENTRICITY":0.0004868,"INCLINATION":97.3786,"RA_OF_ASC_NODE":277.2268,"ARG_OF_PERICENTER":101.9212,"MEAN_ANOMALY":258.2575,"EPHEMERIS_TYPE":0,"NORAD_CAT_ID":60493,"ELEMENT_SET_NO":999,"REV_AT_EPOCH":10640,"BSTAR":0.00018043,"MEAN_MOTION_DOT":0.00005216,"MEAN_MOTION_DDOT":0},{"OBJECT_NAME":"NUSAT-48 (HENRIETTA LEAVITT)","OBJECT_ID":"2024-149AG","EPOCH":"2026-07-15T05:06:41.660352","CLASSIFICATION_TYPE":"U","MEAN_MOTION":15.30274787,"ECCENTRICITY":0.0004772,"INCLINATION":97.392,"RA_OF_ASC_NODE":277.5729,"ARG_OF_PERICENTER":158.734,"MEAN_ANOMALY":201.41,"EPHEMERIS_TYPE":0,"NORAD_CAT_ID":60498,"ELEMENT_SET_NO":999,"REV_AT_EPOCH":10642,"BSTAR":0.00016631,"MEAN_MOTION_DOT":0.00004795,"MEAN_MOTION_DDOT":0},{"OBJECT_NAME":"NUSAT-49 (KLARA DAN VON NEUMANN)","OBJECT_ID":"2024-149AJ","EPOCH":"2026-07-14T17:33:28.426464","CLASSIFICATION_TYPE":"U","MEAN_MOTION":15.3037774,"ECCENTRICITY":0.0002465,"INCLINATION":97.378,"RA_OF_ASC_NODE":276.8349,"ARG_OF_PERICENTER":164.9617,"MEAN_ANOMALY":195.1697,"EPHEMERIS_TYPE":0,"NORAD_CAT_ID":60500,"ELEMENT_SET_NO":999,"REV_AT_EPOCH":10634,"BSTAR":0.00017027051,"MEAN_MOTION_DOT":0.00004926,"MEAN_MOTION_DDOT":0},{"OBJECT_NAME":"NUSAT-45 (UZMASAT-1)","OBJECT_ID":"2025-009AH","EPOCH":"2026-07-15T04:16:45.647040","CLASSIFICATION_TYPE":"U","MEAN_MOTION":15.30380672,"ECCENTRICITY":0.0001894,"INCLINATION":97.3594,"RA_OF_ASC_NODE":277.1272,"ARG_OF_PERICENTER":177.39,"MEAN_ANOMALY":182.7351,"EPHEMERIS_TYPE":0,"NORAD_CAT_ID":62640,"ELEMENT_SET_NO":999,"REV_AT_EPOCH":8320,"BSTAR":0.00017002,"MEAN_MOTION_DOT":0.00004919,"MEAN_MOTION_DDOT":0},{"OBJECT_NAME":"NUSAT-52","OBJECT_ID":"2025-276AC","EPOCH":"2026-07-15T03:04:32.256768","CLASSIFICATION_TYPE":"U","MEAN_MOTION":15.20036524,"ECCENTRICITY":0.0001592,"INCLINATION":97.4199,"RA_OF_ASC_NODE":269.215,"ARG_OF_PERICENTER":279.5231,"MEAN_ANOMALY":80.5824,"EPHEMERIS_TYPE":0,"NORAD_CAT_ID":66692,"ELEMENT_SET_NO":999,"REV_AT_EPOCH":3466,"BSTAR":0.00013189,"MEAN_MOTION_DOT":0.00002775,"MEAN_MOTION_DDOT":0},{"OBJECT_NAME":"NUSAT-51 (YVONNE BRILL)","OBJECT_ID":"2025-276CC","EPOCH":"2026-07-15T04:41:01.392864","CLASSIFICATION_TYPE":"U","MEAN_MOTION":15.20566176,"ECCENTRICITY":0.0001755,"INCLINATION":97.4205,"RA_OF_ASC_NODE":269.4239,"ARG_OF_PERICENTER":236.6671,"MEAN_ANOMALY":123.4396,"EPHEMERIS_TYPE":0,"NORAD_CAT_ID":66740,"ELEMENT_SET_NO":999,"REV_AT_EPOCH":3468,"BSTAR":0.00014588,"MEAN_MOTION_DOT":0.00003125,"MEAN_MOTION_DDOT":0}]}
