NUSAT-26 (M SOMERVILLE) 
1 52184U 22033AD  26196.19754539  .00008873  00000+0  20146-3 0  9998
2 52184  97.2345 275.0780 0007022 137.8543 222.3246 15.43244519109024
NUSAT-33 (ALBANIA-2)    
1 55047U 23001AQ  26196.17232234  .00005322  00000+0  19591-3 0  9994
2 55047  97.3056 256.5429 0004826 315.0176  45.0673 15.28265357196587
NUSAT-35 (WILLIAMINA)   
1 55048U 23001AR  26196.18675804  .00007974  00000+0  23062-3 0  9993
2 55048  97.1836 248.2367 0010468  10.1848 349.9607 15.35825123196707
NUSAT-39 (TIKVAH ALPER) 
1 56201U 23054Z   26196.17609354  .00016627  00000+0  31951-3 0  9990
2 56201  97.3097 106.2111 0001853 323.3160  36.7963 15.48015730182782
NUSAT-38 (MARIA AGNESI) 
1 56202U 23054AA  26196.17095156  .00021130  00000+0  36208-3 0  9995
2 56202  97.3037 106.9413 0008793 327.7392  32.3322 15.51197500182842
NUSAT-37 (JOAN CLARKE)  
1 56203U 23054AB  26196.16504177  .00033138  00000+0  41617-3 0  9994
2 56203  97.2607 103.8147 0007850 143.9390 216.2398 15.59609368183007
NUSAT-40 (C SHOEMAKER)  
1 56943U 23084M   26196.22370404  .00102266  00000+0  49027-3 0  9991
2 56943  97.4871 345.0906 0004109 188.4276 171.6925 15.82434264173238
NUSAT-41 (C PAYNE-G)    
1 56944U 23084N   26196.18242674  .00006228  00000+0  21608-3 0  9990
2 56944  97.5551 333.3501 0006472 211.0252 149.0607 15.30152862172068
NUSAT-42 (M WONENBURGER)
1 56966U 23084AL  26196.19227488  .00013380  00000+0  27114-3 0  9996
2 56966  97.5748 341.5089 0006771 146.0900 214.0783 15.46508063172402
NUSAT-44 (MARIA MITCHE*)
1 59122U 24043AA  26196.20363759  .00006062  00000+0  21235-3 0  9990
2 59122  97.5484 336.8951 0006477 131.4095 228.7703 15.29849573131557
NUSAT-50 (NANCY ROMAN)  
1 60493U 24149AB  26196.15857752  .00005216  00000+0  18043-3 0  9998
2 60493  97.3786 277.2268 0004868 101.9212 258.2575 15.30318696106407
NUSAT-48 (HENRIETTA LE*)
1 60498U 24149AG  26196.21298218  .00004795  00000+0  16631-3 0  9998
2 60498  97.3920 277.5729 0004772 158.7340 201.4100 15.30274787106421
NUSAT-49 (KLARA DAN VO*)
1 60500U 24149AJ  26195.73157901  .00004926  00000+0  17027-3 0  9997
2 60500  97.3780 276.8349 0002465 164.9617 195.1697 15.30377740106346
NUSAT-45 (UZMASAT-1)    
1 62640U 25009AH  26196.17830610  .00004919  00000+0  17002-3 0  9999
2 62640  97.3594 277.1272 0001894 177.3900 182.7351 15.30380672 83209
NUSAT-52                
1 66692U 25276AC  26196.12815112  .00002775  00000+0  13189-3 0  9991
2 66692  97.4199 269.2150 0001592 279.5231  80.5824 15.20036524 34665
NUSAT-51 (YVONNE BRILL) 
1 66740U 25276CC  26196.19515501  .00003125  00000+0  14588-3 0  9995
2 66740  97.4205 269.4239 0001755 236.6671 123.4396 15.20566176 34684
